CCSDS_OMM_VERS = 2.0
CREATION_DATE  = 
ORIGINATOR     = 

OBJECT_NAME    = SL-16 R/B
OBJECT_ID      = 1992-093B
CENTER_NAME    = EARTH
REF_FRAME      = TEME
TIME_SYSTEM    = UTC
MEAN_ELEMENT_THEORY = SGP/SGP4

EPOCH          = 2025-11-10T07:20:38.749920
MEAN_MOTION    = 14.15421930
ECCENTRICITY   = .00029693
INCLINATION    = 71.0209
RA_OF_ASC_NODE = 254.8773
ARG_OF_PERICENTER = 158.9484
MEAN_ANOMALY   = 201.1761

EPHEMERIS_TYPE = 0
CLASSIFICATION_TYPE = U
NORAD_CAT_ID   = 22285
ELEMENT_SET_NO = 999
REV_AT_EPOCH   = 69626
BSTAR          = .22864912E-3
MEAN_MOTION_DOT = .399E-5
MEAN_MOTION_DDOT = 0

CCSDS_OMM_VERS = 2.0
CREATION_DATE  = 
ORIGINATOR     = 

OBJECT_NAME    = COSMOS 2228
OBJECT_ID      = 1992-094A
CENTER_NAME    = EARTH
REF_FRAME      = TEME
TIME_SYSTEM    = UTC
MEAN_ELEMENT_THEORY = SGP/SGP4

EPOCH          = 2025-11-10T22:22:33.948768
MEAN_MOTION    = 14.96510526
ECCENTRICITY   = .00175773
INCLINATION    = 82.5189
RA_OF_ASC_NODE = 350.9660
ARG_OF_PERICENTER = 346.8806
MEAN_ANOMALY   = 13.1956

EPHEMERIS_TYPE = 0
CLASSIFICATION_TYPE = U
NORAD_CAT_ID   = 22286
ELEMENT_SET_NO = 999
REV_AT_EPOCH   = 75829
BSTAR          = .26846243E-3
MEAN_MOTION_DOT = .3084E-4
MEAN_MOTION_DDOT = 0

CCSDS_OMM_VERS = 2.0
CREATION_DATE  = 
ORIGINATOR     = 

OBJECT_NAME    = SL-16 R/B
OBJECT_ID      = 1993-016B
CENTER_NAME    = EARTH
REF_FRAME      = TEME
TIME_SYSTEM    = UTC
MEAN_ELEMENT_THEORY = SGP/SGP4

EPOCH          = 2025-11-10T16:30:36.938592
MEAN_MOTION    = 14.15279038
ECCENTRICITY   = .00092257
INCLINATION    = 71.0052
RA_OF_ASC_NODE = 105.1180
ARG_OF_PERICENTER = 155.7717
MEAN_ANOMALY   = 204.3841

EPHEMERIS_TYPE = 0
CLASSIFICATION_TYPE = U
NORAD_CAT_ID   = 22566
ELEMENT_SET_NO = 999
REV_AT_EPOCH   = 68533
BSTAR          = .10441275E-3
MEAN_MOTION_DOT = .156E-5
MEAN_MOTION_DDOT = 0

CCSDS_OMM_VERS = 2.0
CREATION_DATE  = 
ORIGINATOR     = 

OBJECT_NAME    = COSMOS 2242
OBJECT_ID      = 1993-024A
CENTER_NAME    = EARTH
REF_FRAME      = TEME
TIME_SYSTEM    = UTC
MEAN_ELEMENT_THEORY = SGP/SGP4

EPOCH          = 2025-11-10T12:43:44.990976
MEAN_MOTION    = 14.95906659
ECCENTRICITY   = .00160617
INCLINATION    = 82.5214
RA_OF_ASC_NODE = 20.6228
ARG_OF_PERICENTER = 351.3025
MEAN_ANOMALY   = 8.7915

EPHEMERIS_TYPE = 0
CLASSIFICATION_TYPE = U
NORAD_CAT_ID   = 22626
ELEMENT_SET_NO = 999
REV_AT_EPOCH   = 76257
BSTAR          = .31242811E-3
MEAN_MOTION_DOT = .3528E-4
MEAN_MOTION_DDOT = 0

CCSDS_OMM_VERS = 2.0
CREATION_DATE  = 
ORIGINATOR     = 

OBJECT_NAME    = SL-16 R/B
OBJECT_ID      = 1993-059B
CENTER_NAME    = EARTH
REF_FRAME      = TEME
TIME_SYSTEM    = UTC
MEAN_ELEMENT_THEORY = SGP/SGP4

EPOCH          = 2025-11-10T14:48:47.641248
MEAN_MOTION    = 14.17203751
ECCENTRICITY   = .00160281
INCLINATION    = 70.9895
RA_OF_ASC_NODE = 262.2211
ARG_OF_PERICENTER = 24.6069
MEAN_ANOMALY   = 335.5816

EPHEMERIS_TYPE = 0
CLASSIFICATION_TYPE = U
NORAD_CAT_ID   = 22803
ELEMENT_SET_NO = 999
REV_AT_EPOCH   = 66266
BSTAR          = .17429415E-3
MEAN_MOTION_DOT = .304E-5
MEAN_MOTION_DDOT = 0

CCSDS_OMM_VERS = 2.0
CREATION_DATE  = 
ORIGINATOR     = 

OBJECT_NAME    = ARIANE 40 R/B
OBJECT_ID      = 1993-061H
CENTER_NAME    = EARTH
REF_FRAME      = TEME
TIME_SYSTEM    = UTC
MEAN_ELEMENT_THEORY = SGP/SGP4

EPOCH          = 2025-11-10T10:11:34.509408
MEAN_MOTION    = 14.32770008
ECCENTRICITY   = .00095983
INCLINATION    = 98.5115
RA_OF_ASC_NODE = 20.5368
ARG_OF_PERICENTER = 277.6875
MEAN_ANOMALY   = 82.3219

EPHEMERIS_TYPE = 0
CLASSIFICATION_TYPE = U
NORAD_CAT_ID   = 22830
ELEMENT_SET_NO = 999
REV_AT_EPOCH   = 67702
BSTAR          = .18241203E-3
MEAN_MOTION_DOT = .454E-5
MEAN_MOTION_DDOT = 0

CCSDS_OMM_VERS = 2.0
CREATION_DATE  = 
ORIGINATOR     = 

OBJECT_NAME    = COSMOS 2278
OBJECT_ID      = 1994-023A
CENTER_NAME    = EARTH
REF_FRAME      = TEME
TIME_SYSTEM    = UTC
MEAN_ELEMENT_THEORY = SGP/SGP4

EPOCH          = 2025-11-10T13:38:02.786784
MEAN_MOTION    = 14.14335285
ECCENTRICITY   = .00101273
INCLINATION    = 71.0534
RA_OF_ASC_NODE = 64.3149
ARG_OF_PERICENTER = 220.5683
MEAN_ANOMALY   = 139.4686

EPHEMERIS_TYPE = 0
CLASSIFICATION_TYPE = U
NORAD_CAT_ID   = 23087
ELEMENT_SET_NO = 999
REV_AT_EPOCH   = 62796
BSTAR          = .22586479E-3
MEAN_MOTION_DOT = .385E-5
MEAN_MOTION_DDOT = 0

CCSDS_OMM_VERS = 2.0
CREATION_DATE  = 
ORIGINATOR     = 

OBJECT_NAME    = SL-16 R/B
OBJECT_ID      = 1994-023B
CENTER_NAME    = EARTH
REF_FRAME      = TEME
TIME_SYSTEM    = UTC
MEAN_ELEMENT_THEORY = SGP/SGP4

EPOCH          = 2025-11-10T17:45:11.126304
MEAN_MOTION    = 14.14992736
ECCENTRICITY   = .00014784
INCLINATION    = 70.9998
RA_OF_ASC_NODE = 320.6893
ARG_OF_PERICENTER = 168.0626
MEAN_ANOMALY   = 192.0532

EPHEMERIS_TYPE = 0
CLASSIFICATION_TYPE = U
NORAD_CAT_ID   = 23088
ELEMENT_SET_NO = 999
REV_AT_EPOCH   = 62926
BSTAR          = -.57694669E-4
MEAN_MOTION_DOT = -.159E-5
MEAN_MOTION_DDOT = 0

CCSDS_OMM_VERS = 2.0
CREATION_DATE  = 
ORIGINATOR     = 

OBJECT_NAME    = SL-16 R/B
OBJECT_ID      = 1994-074B
CENTER_NAME    = EARTH
REF_FRAME      = TEME
TIME_SYSTEM    = UTC
MEAN_ELEMENT_THEORY = SGP/SGP4

EPOCH          = 2025-11-10T20:04:11.344224
MEAN_MOTION    = 14.79233183
ECCENTRICITY   = .00052411
INCLINATION    = 97.7244
RA_OF_ASC_NODE = 345.4026
ARG_OF_PERICENTER = 242.7667
MEAN_ANOMALY   = 290.4054

EPHEMERIS_TYPE = 0
CLASSIFICATION_TYPE = U
NORAD_CAT_ID   = 23343
ELEMENT_SET_NO = 999
REV_AT_EPOCH   = 66967
BSTAR          = .12595685E-3
MEAN_MOTION_DOT = .886E-5
MEAN_MOTION_DDOT = 0

CCSDS_OMM_VERS = 2.0
CREATION_DATE  = 
ORIGINATOR     = 

OBJECT_NAME    = SL-16 R/B
OBJECT_ID      = 1994-077B
CENTER_NAME    = EARTH
REF_FRAME      = TEME
TIME_SYSTEM    = UTC
MEAN_ELEMENT_THEORY = SGP/SGP4

EPOCH          = 2025-11-10T13:20:15.191232
MEAN_MOTION    = 14.15542912
ECCENTRICITY   = .00038016
INCLINATION    = 70.9825
RA_OF_ASC_NODE = 243.1174
ARG_OF_PERICENTER = 310.5506
MEAN_ANOMALY   = 49.5286

EPHEMERIS_TYPE = 0
CLASSIFICATION_TYPE = U
NORAD_CAT_ID   = 23405
ELEMENT_SET_NO = 999
REV_AT_EPOCH   = 59937
BSTAR          = .2124408E-3
MEAN_MOTION_DOT = .368E-5
MEAN_MOTION_DDOT = 0

CCSDS_OMM_VERS = 2.0
CREATION_DATE  = 
ORIGINATOR     = 

OBJECT_NAME    = ARIANE 40+ R/B
OBJECT_ID      = 1995-021B
CENTER_NAME    = EARTH
REF_FRAME      = TEME
TIME_SYSTEM    = UTC
MEAN_ELEMENT_THEORY = SGP/SGP4

EPOCH          = 2025-11-10T11:29:30.702048
MEAN_MOTION    = 14.39656474
ECCENTRICITY   = .00076142
INCLINATION    = 98.4688
RA_OF_ASC_NODE = 22.4518
ARG_OF_PERICENTER = 133.6535
MEAN_ANOMALY   = 237.3895

EPHEMERIS_TYPE = 0
CLASSIFICATION_TYPE = U
NORAD_CAT_ID   = 23561
ELEMENT_SET_NO = 999
REV_AT_EPOCH   = 60209
BSTAR          = .20801842E-3
MEAN_MOTION_DOT = .607E-5
MEAN_MOTION_DDOT = 0

CCSDS_OMM_VERS = 2.0
CREATION_DATE  = 
ORIGINATOR     = 

OBJECT_NAME    = SL-16 R/B
OBJECT_ID      = 1995-058B
CENTER_NAME    = EARTH
REF_FRAME      = TEME
TIME_SYSTEM    = UTC
MEAN_ELEMENT_THEORY = SGP/SGP4

EPOCH          = 2025-11-10T16:45:18.660960
MEAN_MOTION    = 14.15476339
ECCENTRICITY   = .00147572
INCLINATION    = 71.0223
RA_OF_ASC_NODE = 70.0721
ARG_OF_PERICENTER = 296.7072
MEAN_ANOMALY   = 63.2540

EPHEMERIS_TYPE = 0
CLASSIFICATION_TYPE = U
NORAD_CAT_ID   = 23705
ELEMENT_SET_NO = 999
REV_AT_EPOCH   = 55101
BSTAR          = .40921956E-4
MEAN_MOTION_DOT = .32E-6
MEAN_MOTION_DDOT = 0

