SL-16 R/B               
1 22285U 92093B   25314.30600405  .00000399  00000+0  22865-3 0  9991
2 22285  71.0209 254.8773 0002969 158.9484 201.1761 14.15421930696268
COSMOS 2228             
1 22286U 92094A   25314.93233737  .00003084  00000+0  26846-3 0  9999
2 22286  82.5189 350.9660 0017577 346.8806  13.1956 14.96510526758291
SL-16 R/B               
1 22566U 93016B   25314.68792753  .00000156  00000+0  10441-3 0  9996
2 22566  71.0052 105.1180 0009225 155.7717 204.3841 14.15279038685332
COSMOS 2242             
1 22626U 93024A   25314.53038184  .00003528  00000+0  31243-3 0  9996
2 22626  82.5214  20.6228 0016061 351.3025   8.7915 14.95906659762576
SL-16 R/B               
1 22803U 93059B   25314.61721807  .00000304  00000+0  17429-3 0  9990
2 22803  70.9895 262.2211 0016028  24.6069 335.5816 14.17203751662663
ARIANE 40 R/B           
1 22830U 93061H   25314.42470497  .00000454  00000+0  18241-3 0  9997
2 22830  98.5115  20.5368 0009598 277.6875  82.3219 14.32770008677022
COSMOS 2278             
1 23087U 94023A   25314.56808781  .00000385  00000+0  22586-3 0  9997
2 23087  71.0534  64.3149 0010127 220.5683 139.4686 14.14335285627969
SL-16 R/B               
1 23088U 94023B   25314.73971211 -.00000159  00000+0 -57695-4 0  9997
2 23088  70.9998 320.6893 0001478 168.0626 192.0532 14.14992736629268
SL-16 R/B               
1 23343U 94074B   25314.83624241  .00000886  00000+0  12596-3 0  9991
2 23343  97.7244 345.4026 0005241 242.7667 290.4054 14.79233183669679
SL-16 R/B               
1 23405U 94077B   25314.55573138  .00000368  00000+0  21244-3 0  9995
2 23405  70.9825 243.1174 0003801 310.5506  49.5286 14.15542912599372
ARIANE 40+ R/B          
1 23561U 95021B   25314.47882757  .00000607  00000+0  20802-3 0  9994
2 23561  98.4688  22.4518 0007614 133.6535 237.3895 14.39656474602091
SL-16 R/B               
1 23705U 95058B   25314.69813265  .00000032  00000+0  40922-4 0  9994
2 23705  71.0223  70.0721 0014757 296.7072  63.2540 14.15476339551013
